{"type": "FeatureCollection", "features": [ {"type": "Feature", "properties": {"norad_id": 33870, "name": "IRIDIUM 33 DEB", "group": "iridium-33-debris", "lat": -75.04943772206987, "lon": -113.83782947680929, "alt_km": 754.6087173098977, "timestamp": "2025-12-26T08:37:54.964723+00:00", "meta": {"OBJECT_NAME": "IRIDIUM 33 DEB", "OBJECT_ID": "1997-051AP", "EPOCH": "2025-12-26T02:36:12.183840", "MEAN_MOTION": 14.45916057, "ECCENTRICITY": 0.0022736, "INCLINATION": 86.3733, "RA_OF_ASC_NODE": 52.5296, "ARG_OF_PERICENTER": 135.8216, "MEAN_ANOMALY": 252.7253, "EPHEMERIS_TYPE": 0, "CLASSIFICATION_TYPE": "U", "NORAD_CAT_ID": 33870, "ELEMENT_SET_NO": 999, "REV_AT_EPOCH": 88330, "BSTAR": 0.00066477, "MEAN_MOTION_DOT": 2.39e-05, "MEAN_MOTION_DDOT": 0}, "tle": {"line1": "1 33870U 97051AP  25360.10847435  .00002390  00000+0  66477-3 0  9997", "line2": "2 33870  86.3733  52.5296 0022736 135.8216 252.7253 14.45916057883308"}}, "geometry": {"type": "Point", "coordinates": [-113.83782947680929, -75.04943772206987]}}, {"type": "Feature", "properties": {"norad_id": 33881, "name": "IRIDIUM 33 DEB", "group": "iridium-33-debris", "lat": -66.91303636283155, "lon": 92.29572451397146, "alt_km": 752.0369562274627, "timestamp": "2025-12-26T08:37:54.964733+00:00", "meta": {"OBJECT_NAME": "IRIDIUM 33 DEB", "OBJECT_ID": "1997-051BA", "EPOCH": "2025-12-24T19:37:00.349824", "MEAN_MOTION": 14.5678795, "ECCENTRICITY": 0.00611156, "INCLINATION": 86.3859, "RA_OF_ASC_NODE": 101.4931, "ARG_OF_PERICENTER": 135.6602, "MEAN_ANOMALY": 353.6404, "EPHEMERIS_TYPE": 0, "CLASSIFICATION_TYPE": "U", "NORAD_CAT_ID": 33881, "ELEMENT_SET_NO": 999, "REV_AT_EPOCH": 87676, "BSTAR": 0.0022055938, "MEAN_MOTION_DOT": 0.0001015, "MEAN_MOTION_DDOT": 0}, "tle": {"line1": "1 33881U 97051BA  25358.81736516  .00010150  00000+0  22056-2 0  9998", "line2": "2 33881  86.3859 101.4931 0061115 135.6602 353.6404 14.56787950876761"}}, "geometry": {"type": "Point", "coordinates": [92.29572451397146, -66.91303636283155]}}, {"type": "Feature", "properties": {"norad_id": 33884, "name": "IRIDIUM 33 DEB", "group": "iridium-33-debris", "lat": -0.9549159516097488, "lon": -176.2701689172961, "alt_km": 639.6412545443163, "timestamp": "2025-12-26T08:37:54.964744+00:00", "meta": {"OBJECT_NAME": "IRIDIUM 33 DEB", "OBJECT_ID": "1997-051BD", "EPOCH": "2025-12-25T23:47:22.730784", "MEAN_MOTION": 14.77694749, "ECCENTRICITY": 0.0008799, "INCLINATION": 86.3707, "RA_OF_ASC_NODE": 3.8355, "ARG_OF_PERICENTER": 270.5089, "MEAN_ANOMALY": 111.7796, "EPHEMERIS_TYPE": 0, "CLASSIFICATION_TYPE": "U", "NORAD_CAT_ID": 33884, "ELEMENT_SET_NO": 999, "REV_AT_EPOCH": 89043, "BSTAR": 0.0015388, "MEAN_MOTION_DOT": 0.00011058, "MEAN_MOTION_DDOT": 0}, "tle": {"line1": "1 33884U 97051BD  25359.99123531  .00011058  00000+0  15388-2 0  9996", "line2": "2 33884  86.3707   3.8355 0008799 270.5089 111.7796 14.77694749890431"}}, "geometry": {"type": "Point", "coordinates": [-176.2701689172961, -0.9549159516097488]}}, {"type": "Feature", "properties": {"norad_id": 33886, "name": "IRIDIUM 33 DEB", "group": "iridium-33-debris", "lat": -54.844847360394674, "lon": -113.34993772069113, "alt_km": 771.327208717461, "timestamp": "2025-12-26T08:37:54.964755+00:00", "meta": {"OBJECT_NAME": "IRIDIUM 33 DEB", "OBJECT_ID": "1997-051BF", "EPOCH": "2025-12-26T02:42:14.649120", "MEAN_MOTION": 14.36066905, "ECCENTRICITY": 0.0013603, "INCLINATION": 86.3819, "RA_OF_ASC_NODE": 61.5994, "ARG_OF_PERICENTER": 194.4249, "MEAN_ANOMALY": 204.2921, "EPHEMERIS_TYPE": 0, "CLASSIFICATION_TYPE": "U", "NORAD_CAT_ID": 33886, "ELEMENT_SET_NO": 999, "REV_AT_EPOCH": 88244, "BSTAR": 0.00017964, "MEAN_MOTION_DOT": 5.42e-06, "MEAN_MOTION_DDOT": 0}, "tle": {"line1": "1 33886U 97051BF  25360.11266955  .00000542  00000+0  17964-3 0  9991", "line2": "2 33886  86.3819  61.5994 0013603 194.4249 204.2921 14.36066905882441"}}, "geometry": {"type": "Point", "coordinates": [-113.34993772069113, -54.844847360394674]}}, {"type": "Feature", "properties": {"norad_id": 33887, "name": "IRIDIUM 33 DEB", "group": "iridium-33-debris", "lat": -48.27261116098923, "lon": -178.32166447070782, "alt_km": 772.035804483231, "timestamp": "2025-12-26T08:37:54.964766+00:00", "meta": {"OBJECT_NAME": "IRIDIUM 33 DEB", "OBJECT_ID": "1997-051BG", "EPOCH": "2025-12-26T01:09:55.785312", "MEAN_MOTION": 14.37232581, "ECCENTRICITY": 0.0005898, "INCLINATION": 86.3044, "RA_OF_ASC_NODE": 357.6564, "ARG_OF_PERICENTER": 176.4648, "MEAN_ANOMALY": 243.1701, "EPHEMERIS_TYPE": 0, "CLASSIFICATION_TYPE": "U", "NORAD_CAT_ID": 33887, "ELEMENT_SET_NO": 999, "REV_AT_EPOCH": 88356, "BSTAR": 0.00014545, "MEAN_MOTION_DOT": 4.53e-06, "MEAN_MOTION_DDOT": 0}, "tle": {"line1": "1 33887U 97051BG  25360.04856233  .00000453  00000+0  14545-3 0  9991", "line2": "2 33887  86.3044 357.6564 0005898 176.4648 243.1701 14.37232581883562"}}, "geometry": {"type": "Point", "coordinates": [-178.32166447070782, -48.27261116098923]}}, {"type": "Feature", "properties": {"norad_id": 33953, "name": "IRIDIUM 33 DEB", "group": "iridium-33-debris", "lat": -72.48230931958524, "lon": -120.5738164955731, "alt_km": 727.4368928684116, "timestamp": "2025-12-26T08:37:54.964776+00:00", "meta": {"OBJECT_NAME": "IRIDIUM 33 DEB", "OBJECT_ID": "1997-051BN", "EPOCH": "2025-12-26T02:39:33.222816", "MEAN_MOTION": 14.55445829, "ECCENTRICITY": 0.0017493, "INCLINATION": 86.3833, "RA_OF_ASC_NODE": 47.9748, "ARG_OF_PERICENTER": 61.7308, "MEAN_ANOMALY": 328.017, "EPHEMERIS_TYPE": 0, "CLASSIFICATION_TYPE": "U", "NORAD_CAT_ID": 33953, "ELEMENT_SET_NO": 999, "REV_AT_EPOCH": 88498, "BSTAR": 0.0010461, "MEAN_MOTION_DOT": 4.576e-05, "MEAN_MOTION_DDOT": 0}, "tle": {"line1": "1 33953U 97051BN  25360.11080119  .00004576  00000+0  10461-2 0  9997", "line2": "2 33953  86.3833  47.9748 0017493  61.7308 328.0170 14.55445829884989"}}, "geometry": {"type": "Point", "coordinates": [-120.5738164955731, -72.48230931958524]}}, {"type": "Feature", "properties": {"norad_id": 33960, "name": "IRIDIUM 33 DEB", "group": "iridium-33-debris", "lat": 85.32928282099593, "lon": 49.76604467739371, "alt_km": 600.5431453756673, "timestamp": "2025-12-26T08:37:54.964787+00:00", "meta": {"OBJECT_NAME": "IRIDIUM 33 DEB", "OBJECT_ID": "1997-051BV", "EPOCH": "2025-12-25T19:31:33.400992", "MEAN_MOTION": 14.85848128, "ECCENTRICITY": 0.00070784, "INCLINATION": 86.2535, "RA_OF_ASC_NODE": 283.3484, "ARG_OF_PERICENTER": 39.5343, "MEAN_ANOMALY": 14.0569, "EPHEMERIS_TYPE": 0, "CLASSIFICATION_TYPE": "U", "NORAD_CAT_ID": 33960, "ELEMENT_SET_NO": 999, "REV_AT_EPOCH": 89061, "BSTAR": 0.0032209235, "MEAN_MOTION_DOT": 0.00028154, "MEAN_MOTION_DDOT": 0}, "tle": {"line1": "1 33960U 97051BV  25359.81358103  .00028154  00000+0  32209-2 0  9993", "line2": "2 33960  86.2535 283.3484 0007078  39.5343  14.0569 14.85848128890611"}}, "geometry": {"type": "Point", "coordinates": [49.76604467739371, 85.32928282099593]}}, {"type": "Feature", "properties": {"norad_id": 33966, "name": "IRIDIUM 33 DEB", "group": "iridium-33-debris", "lat": 82.59482703090428, "lon": -168.87188967521132, "alt_km": 715.3678650590318, "timestamp": "2025-12-26T08:37:54.964798+00:00", "meta": {"OBJECT_NAME": "IRIDIUM 33 DEB", "OBJECT_ID": "1997-051CB", "EPOCH": "2025-12-26T03:28:19.099200", "MEAN_MOTION": 14.49643955, "ECCENTRICITY": 0.0008831, "INCLINATION": 86.3909, "RA_OF_ASC_NODE": 40.2734, "ARG_OF_PERICENTER": 147.0039, "MEAN_ANOMALY": 268.233, "EPHEMERIS_TYPE": 0, "CLASSIFICATION_TYPE": "U", "NORAD_CAT_ID": 33966, "ELEMENT_SET_NO": 999, "REV_AT_EPOCH": 88636, "BSTAR": 0.00047027, "MEAN_MOTION_DOT": 1.827e-05, "MEAN_MOTION_DDOT": 0}, "tle": {"line1": "1 33966U 97051CB  25360.14466550  .00001827  00000+0  47027-3 0  9996", "line2": "2 33966  86.3909  40.2734 0008831 147.0039 268.2330 14.49643955886363"}}, "geometry": {"type": "Point", "coordinates": [-168.87188967521132, 82.59482703090428]}}, {"type": "Feature", "properties": {"norad_id": 34071, "name": "IRIDIUM 33 DEB", "group": "iridium-33-debris", "lat": 22.967299145320744, "lon": -169.64491231975327, "alt_km": 726.356849490342, "timestamp": "2025-12-26T08:37:54.964808+00:00", "meta": {"OBJECT_NAME": "IRIDIUM 33 DEB", "OBJECT_ID": "1997-051CE", "EPOCH": "2025-12-26T02:56:28.283712", "MEAN_MOTION": 14.49522811, "ECCENTRICITY": 0.0009811, "INCLINATION": 86.3453, "RA_OF_ASC_NODE": 12.0103, "ARG_OF_PERICENTER": 71.963, "MEAN_ANOMALY": 288.2643, "EPHEMERIS_TYPE": 0, "CLASSIFICATION_TYPE": "U", "NORAD_CAT_ID": 34071, "ELEMENT_SET_NO": 999, "REV_AT_EPOCH": 88528, "BSTAR": 0.00059587, "MEAN_MOTION_DOT": 2.304e-05, "MEAN_MOTION_DDOT": 0}, "tle": {"line1": "1 34071U 97051CE  25360.12254958  .00002304  00000+0  59587-3 0  9994", "line2": "2 34071  86.3453  12.0103 0009811  71.9630 288.2643 14.49522811885289"}}, "geometry": {"type": "Point", "coordinates": [-169.64491231975327, 22.967299145320744]}}, {"type": "Feature", "properties": {"norad_id": 34077, "name": "IRIDIUM 33 DEB", "group": "iridium-33-debris", "lat": 33.972727290323405, "lon": 47.94800663858174, "alt_km": 670.3060568809997, "timestamp": "2025-12-26T08:37:54.964819+00:00", "meta": {"OBJECT_NAME": "IRIDIUM 33 DEB", "OBJECT_ID": "1997-051CL", "EPOCH": "2025-12-26T03:48:27.994176", "MEAN_MOTION": 14.65007074, "ECCENTRICITY": 0.0008627, "INCLINATION": 86.3848, "RA_OF_ASC_NODE": 45.595, "ARG_OF_PERICENTER": 355.0003, "MEAN_ANOMALY": 59.6549, "EPHEMERIS_TYPE": 0, "CLASSIFICATION_TYPE": "U", "NORAD_CAT_ID": 34077, "ELEMENT_SET_NO": 999, "REV_AT_EPOCH": 88529, "BSTAR": 0.0014921, "MEAN_MOTION_DOT": 8.022e-05, "MEAN_MOTION_DDOT": 0}, "tle": {"line1": "1 34077U 97051CL  25360.15865734  .00008022  00000+0  14921-2 0  9998", "line2": "2 34077  86.3848  45.5950 0008627 355.0003  59.6549 14.65007074885291"}}, "geometry": {"type": "Point", "coordinates": [47.94800663858174, 33.972727290323405]}}]}